NORAD_CAT_ID,OBJECT_NAME,OBJECT_TYPE,EPOCH,MEAN_MOTION,ECCENTRICITY,INCLINATION,RA_OF_ASC_NODE,ARG_OF_PERICENTER,MEAN_ANOMALY,BSTAR,MEAN_MOTION_DOT,MEAN_MOTION_DDOT,TLE_LINE0,TLE_LINE1,TLE_LINE2,SEMIMAJOR_AXIS,PERIOD,APOGEE,PERIGEE,DECAYED
55636.0,STARLINK-5218,PAYLOAD,2023-06-15 12:28:41,14.98329356,0.0005123,69.9985,201.1311,268.4354,91.6218,3.5354e-05,3.29e-06,0.0,0 STARLINK-5218,1 55636U 23021J   23166.51992022  .00000329  00000-0  35354-4 0  9999,2 55636  69.9985 201.1311 0005123 268.4354  91.6218 14.98329356 18786,6950.195,96.107,575.62,568.499,0.0
55636.0,STARLINK-5218,PAYLOAD,2023-06-16 09:18:25,14.98335256,0.000508,69.9986,198.9428,267.9061,92.1516,4.1349e-05,4e-06,0.0,0 STARLINK-5218,1 55636U 23021J   23167.38779485  .00000400  00000-0  41349-4 0  9992,2 55636  69.9986 198.9428 0005080 267.9061  92.1516 14.98335256 18615,6950.177,96.107,575.572,568.511,0.0
55636.0,STARLINK-5218,PAYLOAD,2023-06-16 12:30:41,14.9833703,0.0005071,69.9986,198.6062,268.0292,92.0286,5.9944e-05,6.22e-06,0.0,0 STARLINK-5218,1 55636U 23021J   23167.52131275  .00000622  00000-0  59944-4 0  9993,2 55636  69.9986 198.6062 0005071 268.0292  92.0286 14.98337030 18934,6950.171,96.107,575.561,568.512,0.0
55636.0,STARLINK-5218,PAYLOAD,2023-06-16 18:55:14,14.98331419,0.000503,69.9988,197.9328,267.8994,92.1589,1.4279e-05,7.7e-07,0.0,0 STARLINK-5218,1 55636U 23021J   23167.78835659  .00000077  00000-0  14279-4 0  9994,2 55636  69.9988 197.9328 0005030 267.8994  92.1589 14.98331419 18970,6950.189,96.107,575.549,568.558,0.0
55636.0,STARLINK-5218,PAYLOAD,2023-06-17 01:19:46,14.98330014,0.0005015,69.9988,197.2597,267.8699,92.1886,-5.8008e-06,-1.63e-06,0.0,0 STARLINK-5218,1 55636U 23021J   23168.05539782 -.00000163  00000-0 -58008-5 0  9990,2 55636  69.9988 197.2597 0005015 267.8699  92.1886 14.98330014 18718,6950.193,96.107,575.543,568.572,0.0
55636.0,STARLINK-5218,PAYLOAD,2023-06-17 07:44:18,14.9832879,0.0005026,69.9987,196.5864,267.6814,92.3769,-1.7485e-05,-3.02e-06,0.0,0 STARLINK-5218,1 55636U 23021J   23168.32243882 -.00000302  00000-0 -17485-4 0  9991,2 55636  69.9987 196.5864 0005026 267.6814  92.3769 14.98328790 19053,6950.197,96.107,575.555,568.568,0.0
55636.0,STARLINK-5218,PAYLOAD,2023-06-17 18:57:15,14.98328574,0.0004999,69.9988,195.4082,267.3436,92.7151,-2.1312e-05,-3.48e-06,0.0,0 STARLINK-5218,1 55636U 23021J   23168.78975933 -.00000348  00000-0 -21312-4 0  9994,2 55636  69.9988 195.4082 0004999 267.3436  92.7151 14.98328574 19126,6950.197,96.107,575.537,568.588,0.0
55636.0,STARLINK-5218,PAYLOAD,2023-06-18 01:21:47,14.98331024,0.0004993,69.9987,194.7349,266.9949,93.0638,-3.7192e-05,-5.37e-06,0.0,0 STARLINK-5218,1 55636U 23021J   23169.05679815 -.00000537  00000-0 -37192-4 0  9998,2 55636  69.9987 194.7349 0004993 266.9949  93.0638 14.98331024 18869,6950.19,96.107,575.525,568.584,0.0
55636.0,STARLINK-5218,PAYLOAD,2023-06-18 07:46:19,14.98329749,0.0005008,69.9987,194.0615,267.0034,93.0552,-4.8174e-05,-6.68e-06,0.0,0 STARLINK-5218,1 55636U 23021J   23169.32383910 -.00000668  00000-0 -48174-4 0  9993,2 55636  69.9987 194.0615 0005008 267.0034  93.0552 14.98329749 19208,6950.194,96.107,575.539,568.578,0.0
55636.0,STARLINK-5218,PAYLOAD,2023-06-18 18:59:16,14.98330619,0.0005083,69.9985,192.8835,267.0641,92.9936,-4.3316e-05,-6.1e-06,0.0,0 STARLINK-5218,1 55636U 23021J   23169.79115836 -.00000610  00000-0 -43316-4 0  9994,2 55636  69.9985 192.8835 0005083 267.0641  92.9936 14.98330619 19272,6950.191,96.107,575.589,568.523,0.0
55636.0,STARLINK-5218,PAYLOAD,2023-06-19 01:23:48,14.98328836,0.0005142,69.9983,192.21,266.9225,93.1346,4.4019e-05,4.32e-06,0.0,0 STARLINK-5218,1 55636U 23021J   23170.05819699  .00000432  00000-0  44019-4 0  9994,2 55636  69.9983 192.2100 0005142 266.9225  93.1346 14.98328836 19019,6950.196,96.107,575.635,568.488,0.0
55636.0,STARLINK-5218,PAYLOAD,2023-06-19 02:59:56,14.98328434,0.0005149,69.9983,192.0417,266.848,93.209,4.0189e-05,3.86e-06,0.0,0 STARLINK-5218,1 55636U 23021J   23170.12495741  .00000386  00000-0  40189-4 0  9992,2 55636  69.9983 192.0417 0005149 266.8480  93.2090 14.98328434 19322,6950.198,96.107,575.641,568.484,0.0
55636.0,STARLINK-5218,PAYLOAD,2023-06-19 19:01:16,14.98329349,0.0005169,69.9982,190.3583,266.5777,93.4791,3.4053e-05,3.13e-06,0.0,0 STARLINK-5218,1 55636U 23021J   23170.79255724  .00000313  00000-0  34053-4 0  9993,2 55636  69.9982 190.3583 0005169 266.5777  93.4791 14.98329349 19421,6950.195,96.107,575.652,568.467,0.0
55636.0,STARLINK-5218,PAYLOAD,2023-06-20 07:50:21,14.98329195,0.0005183,69.9982,189.0118,266.3121,93.7445,3.7422e-05,3.53e-06,0.0,0 STARLINK-5218,1 55636U 23021J   23171.32663732  .00000353  00000-0  37422-4 0  9992,2 55636  69.9982 189.0118 0005183 266.3121  93.7445 14.98329195 19201,6950.195,96.107,575.663,568.458,0.0
55636.0,STARLINK-5218,PAYLOAD,2023-06-21 11:04:38,14.98332283,0.0005116,69.9984,186.1501,265.7029,94.3546,2.3816e-05,1.91e-06,0.0,0 STARLINK-5218,1 55636U 23021J   23172.46155490  .00000191  00000-0  23816-4 0  9997,2 55636  69.9984 186.1501 0005116 265.7029  94.3546 14.98332283 19372,6950.186,96.107,575.607,568.495,0.0
55636.0,STARLINK-5218,PAYLOAD,2023-06-22 17:31:11,14.98329782,0.0005088,69.9984,182.9522,264.8937,95.1641,-9.7113e-06,-2.09e-06,0.0,0 STARLINK-5218,1 55636U 23021J   23173.72999582 -.00000209  00000-0 -97113-5 0  9999,2 55636  69.9984 182.9522 0005088 264.8937  95.1641 14.98329782 19561,6950.194,96.107,575.595,568.522,0.0
55636.0,STARLINK-5218,PAYLOAD,2023-06-23 17:33:12,14.98330604,0.0005107,69.9983,180.4274,264.0974,95.9603,-1.8727e-06,-1.16e-06,0.0,0 STARLINK-5218,1 55636U 23021J   23174.73139467 -.00000116  00000-0 -18727-5 0  9990,2 55636  69.9983 180.4274 0005107 264.0974  95.9603 14.98330604 19710,6950.191,96.107,575.605,568.507,0.0
55636.0,STARLINK-5218,PAYLOAD,2023-06-25 03:12:01,14.98327143,0.0005137,69.998,176.8924,264.1221,95.9352,-2.2812e-06,-1.21e-06,0.0,0 STARLINK-5218,1 55636U 23021J   23176.13335620 -.00000121  00000-0 -22812-5 0  9991,2 55636  69.9980 176.8924 0005137 264.1221  95.9352 14.98327143 19925,6950.202,96.107,575.637,568.496,0.0
55636.0,STARLINK-5218,PAYLOAD,2023-06-26 03:14:02,14.98330391,0.0005123,69.9979,174.3675,263.6744,96.3831,-3.0163e-06,-1.29e-06,0.0,0 STARLINK-5218,1 55636U 23021J   23177.13475443 -.00000129  00000-0 -30163-5 0  9996,2 55636  69.9979 174.3675 0005123 263.6744  96.3831 14.98330391 20072,6950.192,96.107,575.617,568.496,0.0
55636.0,STARLINK-5218,PAYLOAD,2023-06-27 03:16:03,14.98331083,0.000512,69.998,171.8425,263.1206,96.9371,4.7619e-05,4.75e-06,0.0,0 STARLINK-5218,1 55636U 23021J   23178.13615191  .00000475  00000-0  47619-4 0  9998,2 55636  69.9980 171.8425 0005120 263.1206  96.9371 14.98331083 20225,6950.19,96.107,575.613,568.496,0.0
55636.0,STARLINK-5218,PAYLOAD,2023-06-28 03:18:04,14.98327802,0.0005083,69.9983,169.3176,262.4984,97.5598,-1.6694e-05,-2.93e-06,0.0,0 STARLINK-5218,1 55636U 23021J   23179.13755527 -.00000293  00000-0 -16694-4 0  9996,2 55636  69.9983 169.3176 0005083 262.4984  97.5598 14.98327802 20374,6950.2,96.107,575.597,568.532,0.0
55636.0,STARLINK-5218,PAYLOAD,2023-06-29 03:20:05,14.98332075,0.0005068,69.9983,166.7928,262.0071,98.0513,8.6355e-07,-8.3e-07,0.0,0 STARLINK-5218,1 55636U 23021J   23180.13895216 -.00000083  00000-0  86355-6 0  9997,2 55636  69.9983 166.7928 0005068 262.0071  98.0513 14.98332075 20524,6950.186,96.107,575.574,568.529,0.0
55636.0,STARLINK-5218,PAYLOAD,2023-07-01 01:47:59,14.98326204,0.0004949,69.9987,161.9116,261.6988,98.361,-5.9853e-05,-8.07e-06,0.0,0 STARLINK-5218,1 55636U 23021J   23182.07499626 -.00000807  00000-0 -59853-4 0  9993,2 55636  69.9987 161.9116 0004949 261.6988  98.3610 14.98326204 20813,6950.205,96.107,575.509,568.63,0.0
55636.0,STARLINK-5218,PAYLOAD,2023-07-02 01:50:00,14.98331236,0.0004937,69.9987,159.3869,261.3174,98.7426,-7.84e-06,-1.87e-06,0.0,0 STARLINK-5218,1 55636U 23021J   23183.07639226 -.00000187  00000-0 -78400-5 0  9997,2 55636  69.9987 159.3869 0004937 261.3174  98.7426 14.98331236 20966,6950.189,96.107,575.485,568.623,0.0
55636.0,STARLINK-5218,PAYLOAD,2023-07-03 01:52:00,14.98330985,0.0004938,69.9987,156.862,260.7899,99.2702,8.4986e-05,9.21e-06,0.0,0 STARLINK-5218,1 55636U 23021J   23184.07778886  .00000921  00000-0  84986-4 0  9993,2 55636  69.9987 156.8620 0004938 260.7899  99.2702 14.98330985 21112,6950.19,96.107,575.487,568.623,0.0
55636.0,STARLINK-5218,PAYLOAD,2023-07-04 01:54:02,14.98327598,0.0004822,69.9988,154.3371,259.9406,100.1209,-5.1424e-05,-7.07e-06,0.0,0 STARLINK-5218,1 55636U 23021J   23185.07919379 -.00000707  00000-0 -51424-4 0  9993,2 55636  69.9988 154.3371 0004822 259.9406 100.1209 14.98327598 21261,6950.2,96.107,575.417,568.714,0.0
55636.0,STARLINK-5218,PAYLOAD,2023-07-05 00:19:54,14.98333992,0.0004745,69.9988,151.9805,259.4292,100.6332,-2.4166e-05,-3.82e-06,0.0,0 STARLINK-5218,1 55636U 23021J   23186.01382899 -.00000382  00000-0 -24166-4 0  9991,2 55636  69.9988 151.9805 0004745 259.4292 100.6332 14.98333992 21401,6950.181,96.107,575.343,568.748,0.0
55636.0,STARLINK-5218,PAYLOAD,2023-07-06 08:22:35,14.98330189,0.0004666,69.999,148.614,259.4773,100.5861,6.9511e-05,7.36e-06,0.0,0 STARLINK-5218,1 55636U 23021J   23187.34902773  .00000736  00000-0  69511-4 0  9991,2 55636  69.9990 148.6140 0004666 259.4773 100.5861 14.98330189 21608,6950.192,96.107,575.3,568.814,0.0
55636.0,STARLINK-5218,PAYLOAD,2023-07-06 14:47:09,14.98306418,0.0004504,69.999,147.9409,263.2499,96.8147,0.0004137,4.844e-05,0.0,0 STARLINK-5218,1 55636U 23021J   23187.61607655  .00004844  00000-0  41370-3 0  9998,2 55636  69.9990 147.9409 0004504 263.2499  96.8147 14.98306418 21643,6950.266,96.109,575.261,569.0,0.0
55636.0,STARLINK-5218,PAYLOAD,2023-07-07 03:36:12,14.98331638,0.0004531,69.9993,146.5947,258.959,101.106,8.7912e-06,1.2e-07,0.0,0 STARLINK-5218,1 55636U 23021J   23188.15014852  .00000012  00000-0  87912-5 0  9996,2 55636  69.9993 146.5947 0004531 258.9590 101.1060 14.98331638 21726,6950.188,96.107,575.202,568.904,0.0
